{
  "type": "FeatureCollection",
  "features": [
    {
      "type": "Feature",
      "properties": {
        "norad_id": 41890,
        "name": "CYGFM07",
        "group": "weather",
        "lat": -5.395000129383,
        "lon": -51.67551263145818,
        "alt_km": 410.8265584359606,
        "timestamp": "2025-12-22T16:55:17.091533+00:00",
        "meta_object_name": "CYGFM07",
        "meta_object_id": "2016-078G",
        "meta_epoch": "2025-12-22T06:08:39.336576",
        "meta_mean_motion": 15.50383411,
        "meta_eccentricity": 0.00098531,
        "meta_inclination": 34.9484,
        "meta_ra_of_asc_node": 319.0422,
        "meta_arg_of_pericenter": 296.1247,
        "meta_mean_anomaly": 63.8461,
        "meta_ephemeris_type": 0,
        "meta_classification_type": "U",
        "meta_norad_cat_id": 41890,
        "meta_element_set_no": 999,
        "meta_rev_at_epoch": 50143,
        "meta_bstar": 0.00041114767,
        "meta_mean_motion_dot": 0.00024167,
        "meta_mean_motion_ddot": 0,
        "tle_line1": "1 41890U 16078G   25356.25601084  .00024167  00000+0  41115-3 0  9995",
        "tle_line2": "2 41890  34.9484 319.0422 0009853 296.1247  63.8461 15.50383411501435"
      },
      "geometry": {
        "type": "Point",
        "coordinates": [
          -51.67551263145818,
          -5.395000129383
        ]
      }
    },
    {
      "type": "Feature",
      "properties": {
        "norad_id": 41891,
        "name": "CYGFM03",
        "group": "weather",
        "lat": -0.8775743239163992,
        "lon": 139.27806010994615,
        "alt_km": 416.68469748563984,
        "timestamp": "2025-12-22T16:55:17.091543+00:00",
        "meta_object_name": "CYGFM03",
        "meta_object_id": "2016-078H",
        "meta_epoch": "2025-12-22T05:19:24.218112",
        "meta_mean_motion": 15.50276606,
        "meta_eccentricity": 0.00096037,
        "meta_inclination": 34.9439,
        "meta_ra_of_asc_node": 321.1909,
        "meta_arg_of_pericenter": 283.2899,
        "meta_mean_anomaly": 76.6752,
        "meta_ephemeris_type": 0,
        "meta_classification_type": "U",
        "meta_norad_cat_id": 41891,
        "meta_element_set_no": 999,
        "meta_rev_at_epoch": 50140,
        "meta_bstar": 0.00040834907,
        "meta_mean_motion_dot": 0.00023908,
        "meta_mean_motion_ddot": 0,
        "tle_line1": "1 41891U 16078H   25356.22180808  .00023908  00000+0  40835-3 0  9999",
        "tle_line2": "2 41891  34.9439 321.1909 0009603 283.2899  76.6752 15.50276606501402"
      },
      "geometry": {
        "type": "Point",
        "coordinates": [
          139.27806010994615,
          -0.8775743239163992
        ]
      }
    },
    {
      "type": "Feature",
      "properties": {
        "norad_id": 43010,
        "name": "FENGYUN 3D",
        "group": "weather",
        "lat": 28.941824233771417,
        "lon": 148.18672923886746,
        "alt_km": 823.9687264130062,
        "timestamp": "2025-12-22T16:55:17.091554+00:00",
        "meta_object_name": "FENGYUN 3D",
        "meta_object_id": "2017-072A",
        "meta_epoch": "2025-12-22T06:03:56.962368",
        "meta_mean_motion": 14.19687912,
        "meta_eccentricity": 0.00014011,
        "meta_inclination": 98.9902,
        "meta_ra_of_asc_node": 322.7054,
        "meta_arg_of_pericenter": 154.8221,
        "meta_mean_anomaly": 205.3023,
        "meta_ephemeris_type": 0,
        "meta_classification_type": "U",
        "meta_norad_cat_id": 43010,
        "meta_element_set_no": 999,
        "meta_rev_at_epoch": 41988,
        "meta_bstar": 0.00026452448,
        "meta_mean_motion_dot": 5.13e-06,
        "meta_mean_motion_ddot": 0,
        "tle_line1": "1 43010U 17072A   25356.25274262  .00000513  00000+0  26452-3 0  9996",
        "tle_line2": "2 43010  98.9902 322.7054 0001401 154.8221 205.3023 14.19687912419882"
      },
      "geometry": {
        "type": "Point",
        "coordinates": [
          148.18672923886746,
          28.941824233771417
        ]
      }
    },
    {
      "type": "Feature",
      "properties": {
        "norad_id": 43013,
        "name": "NOAA 20 (JPSS-1)",
        "group": "weather",
        "lat": -61.76414472166846,
        "lon": -50.41787000545381,
        "alt_km": 835.1694175060738,
        "timestamp": "2025-12-22T16:55:17.091565+00:00",
        "meta_object_name": "NOAA 20 (JPSS-1)",
        "meta_object_id": "2017-073A",
        "meta_epoch": "2025-12-22T05:22:35.154336",
        "meta_mean_motion": 14.19528154,
        "meta_eccentricity": 0.00021177,
        "meta_inclination": 98.7612,
        "meta_ra_of_asc_node": 292.4175,
        "meta_arg_of_pericenter": 73.6364,
        "meta_mean_anomaly": 286.5045,
        "meta_ephemeris_type": 0,
        "meta_classification_type": "U",
        "meta_norad_cat_id": 43013,
        "meta_element_set_no": 999,
        "meta_rev_at_epoch": 41936,
        "meta_bstar": 6.3811282e-05,
        "meta_mean_motion_dot": 9e-07,
        "meta_mean_motion_ddot": 0,
        "tle_line1": "1 43013U 17073A   25356.22401799  .00000090  00000+0  63811-4 0  9995",
        "tle_line2": "2 43013  98.7612 292.4175 0002117  73.6364 286.5045 14.19528154419369"
      },
      "geometry": {
        "type": "Point",
        "coordinates": [
          -50.41787000545381,
          -61.76414472166846
        ]
      }
    },
    {
      "type": "Feature",
      "properties": {
        "norad_id": 43226,
        "name": "GOES 17",
        "group": "weather",
        "lat": 0.0872286538338139,
        "lon": -104.20913977572103,
        "alt_km": 35774.571376954016,
        "timestamp": "2025-12-22T16:55:17.091579+00:00",
        "meta_object_name": "GOES 17",
        "meta_object_id": "2018-022A",
        "meta_epoch": "2025-12-22T04:10:44.754240",
        "meta_mean_motion": 1.00270236,
        "meta_eccentricity": 0.00031209,
        "meta_inclination": 0.4804,
        "meta_ra_of_asc_node": 89.1118,
        "meta_arg_of_pericenter": 191.9234,
        "meta_mean_anomaly": 143.1218,
        "meta_ephemeris_type": 0,
        "meta_classification_type": "U",
        "meta_norad_cat_id": 43226,
        "meta_element_set_no": 999,
        "meta_rev_at_epoch": 2864,
        "meta_bstar": 0,
        "meta_mean_motion_dot": -1.61e-06,
        "meta_mean_motion_ddot": 0,
        "tle_line1": "1 43226U 18022A   25356.17412910 -.00000161  00000+0  00000+0 0  9993",
        "tle_line2": "2 43226   0.4804  89.1118 0003120 191.9234 143.1218  1.00270236 28649"
      },
      "geometry": {
        "type": "Point",
        "coordinates": [
          -104.20913977572103,
          0.0872286538338139
        ]
      }
    },
    {
      "type": "Feature",
      "properties": {
        "norad_id": 43491,
        "name": "FENGYUN 2H",
        "group": "weather",
        "lat": -0.7135250277183474,
        "lon": 64.68594470274971,
        "alt_km": 35796.38253082127,
        "timestamp": "2025-12-22T16:55:17.091592+00:00",
        "meta_object_name": "FENGYUN 2H",
        "meta_object_id": "2018-050A",
        "meta_epoch": "2025-12-22T01:33:30.594816",
        "meta_mean_motion": 1.00271057,
        "meta_eccentricity": 0.00023632,
        "meta_inclination": 2.5736,
        "meta_ra_of_asc_node": 81.232,
        "meta_arg_of_pericenter": 165.9246,
        "meta_mean_anomaly": 306.4444,
        "meta_ephemeris_type": 0,
        "meta_classification_type": "U",
        "meta_norad_cat_id": 43491,
        "meta_element_set_no": 999,
        "meta_rev_at_epoch": 2766,
        "meta_bstar": 0,
        "meta_mean_motion_dot": -1.09e-06,
        "meta_mean_motion_ddot": 0,
        "tle_line1": "1 43491U 18050A   25356.06493744 -.00000109  00000+0  00000+0 0  9992",
        "tle_line2": "2 43491   2.5736  81.2320 0002363 165.9246 306.4444  1.00271057 27668"
      },
      "geometry": {
        "type": "Point",
        "coordinates": [
          64.68594470274971,
          -0.7135250277183474
        ]
      }
    },
    {
      "type": "Feature",
      "properties": {
        "norad_id": 43689,
        "name": "METOP-C",
        "group": "weather",
        "lat": 31.320428482346486,
        "lon": -120.33792974767792,
        "alt_km": 818.8750866549863,
        "timestamp": "2025-12-22T16:55:17.091605+00:00",
        "meta_object_name": "METOP-C",
        "meta_object_id": "2018-087A",
        "meta_epoch": "2025-12-22T06:05:26.615328",
        "meta_mean_motion": 14.21487981,
        "meta_eccentricity": 7.862e-05,
        "meta_inclination": 98.6915,
        "meta_ra_of_asc_node": 53.877,
        "meta_arg_of_pericenter": 21.5816,
        "meta_mean_anomaly": 338.5394,
        "meta_ephemeris_type": 0,
        "meta_classification_type": "U",
        "meta_norad_cat_id": 43689,
        "meta_element_set_no": 999,
        "meta_rev_at_epoch": 36969,
        "meta_bstar": 8.8250563e-05,
        "meta_mean_motion_dot": 1.49e-06,
        "meta_mean_motion_ddot": 0,
        "tle_line1": "1 43689U 18087A   25356.25378027  .00000149  00000+0  88251-4 0  9990",
        "tle_line2": "2 43689  98.6915  53.8770 0000786  21.5816 338.5394 14.21487981369697"
      },
      "geometry": {
        "type": "Point",
        "coordinates": [
          -120.33792974767792,
          31.320428482346486
        ]
      }
    }
  ]
}